{
  "links" : {
    "next" : "https://api.nasa.gov/neo/rest/v1/feed?start_date=2012-08-23&end_date=2012-08-23&detailed=true&api_key=t0TVs3DtDT2H8Oy2Zy8m2eVrNsAVKAexjcZXUckd",
    "prev" : "https://api.nasa.gov/neo/rest/v1/feed?start_date=2012-08-21&end_date=2012-08-21&detailed=true&api_key=t0TVs3DtDT2H8Oy2Zy8m2eVrNsAVKAexjcZXUckd",
    "self" : "https://api.nasa.gov/neo/rest/v1/feed?start_date=2012-08-22&end_date=2012-08-22&detailed=true&api_key=t0TVs3DtDT2H8Oy2Zy8m2eVrNsAVKAexjcZXUckd"
  },
  "element_count" : 8,
  "near_earth_objects" : {
    "2012-08-22" : [ {
      "links" : {
        "self" : "https://api.nasa.gov/neo/rest/v1/neo/3605841?api_key=t0TVs3DtDT2H8Oy2Zy8m2eVrNsAVKAexjcZXUckd"
      },
      "neo_reference_id" : "3605841",
      "name" : "(2012 MN2)",
      "nasa_jpl_url" : "http://ssd.jpl.nasa.gov/sbdb.cgi?sstr=3605841",
      "absolute_magnitude_h" : 20.6,
      "estimated_diameter" : {
        "kilometers" : {
          "estimated_diameter_min" : 0.2016299194,
          "estimated_diameter_max" : 0.4508582062
        },
        "meters" : {
          "estimated_diameter_min" : 201.6299194428,
          "estimated_diameter_max" : 450.8582061718
        },
        "miles" : {
          "estimated_diameter_min" : 0.1252869847,
          "estimated_diameter_max" : 0.2801502144
        },
        "feet" : {
          "estimated_diameter_min" : 661.5155049046,
          "estimated_diameter_max" : 1479.1936371367
        }
      },
      "is_potentially_hazardous_asteroid" : false,
      "close_approach_data" : [ {
        "close_approach_date" : "2012-08-22",
        "epoch_date_close_approach" : 1345618800000,
        "relative_velocity" : {
          "kilometers_per_second" : "3.1830331772",
          "kilometers_per_hour" : "11458.9194377486",
          "miles_per_hour" : "7120.1269139722"
        },
        "miss_distance" : {
          "astronomical" : "0.2197684823",
          "lunar" : "85.4899368286",
          "kilometers" : "32876896",
          "miles" : "20428756"
        },
        "orbiting_body" : "Earth"
      } ],
      "orbital_data" : {
        "orbit_id" : "31",
        "orbit_determination_date" : "2017-04-06 08:49:32",
        "orbit_uncertainty" : "5",
        "minimum_orbit_intersection" : ".213937",
        "jupiter_tisserand_invariant" : "3.511",
        "epoch_osculation" : "2458000.5",
        "eccentricity" : ".4522766959070303",
        "semi_major_axis" : "2.214727251795831",
        "inclination" : "3.837965288764581",
        "ascending_node_longitude" : "79.5938325985361",
        "orbital_period" : "1203.867807713668",
        "perihelion_distance" : "1.213057728018355",
        "perihelion_argument" : "252.9845266262332",
        "aphelion_distance" : "3.216396775573307",
        "perihelion_time" : "2458572.025282875017",
        "mean_anomaly" : "189.0932770884908",
        "mean_motion" : ".2990361547117834",
        "equinox" : "J2000"
      }
    }, {
      "links" : {
        "self" : "https://api.nasa.gov/neo/rest/v1/neo/3606269?api_key=t0TVs3DtDT2H8Oy2Zy8m2eVrNsAVKAexjcZXUckd"
      },
      "neo_reference_id" : "3606269",
      "name" : "(2012 OE1)",
      "nasa_jpl_url" : "http://ssd.jpl.nasa.gov/sbdb.cgi?sstr=3606269",
      "absolute_magnitude_h" : 20.2,
      "estimated_diameter" : {
        "kilometers" : {
          "estimated_diameter_min" : 0.2424124811,
          "estimated_diameter_max" : 0.5420507863
        },
        "meters" : {
          "estimated_diameter_min" : 242.4124811008,
          "estimated_diameter_max" : 542.0507863358
        },
        "miles" : {
          "estimated_diameter_min" : 0.1506280858,
          "estimated_diameter_max" : 0.3368146392
        },
        "feet" : {
          "estimated_diameter_min" : 795.3165644948,
          "estimated_diameter_max" : 1778.3819018419
        }
      },
      "is_potentially_hazardous_asteroid" : false,
      "close_approach_data" : [ {
        "close_approach_date" : "2012-08-22",
        "epoch_date_close_approach" : 1345618800000,
        "relative_velocity" : {
          "kilometers_per_second" : "2.3698896584",
          "kilometers_per_hour" : "8531.6027703864",
          "miles_per_hour" : "5301.2061769659"
        },
        "miss_distance" : {
          "astronomical" : "0.3353902416",
          "lunar" : "130.466796875",
          "kilometers" : "50173668",
          "miles" : "31176470"
        },
        "orbiting_body" : "Earth"
      } ],
      "orbital_data" : {
        "orbit_id" : "26",
        "orbit_determination_date" : "2017-04-06 08:49:23",
        "orbit_uncertainty" : "2",
        "minimum_orbit_intersection" : ".296552",
        "jupiter_tisserand_invariant" : "3.545",
        "epoch_osculation" : "2458000.5",
        "eccentricity" : ".4125097455315503",
        "semi_major_axis" : "2.197794384030614",
        "inclination" : "6.164451143338861",
        "ascending_node_longitude" : "266.2621344016611",
        "orbital_period" : "1190.087834848583",
        "perihelion_distance" : "1.291182781943475",
        "perihelion_argument" : "58.8940563188994",
        "aphelion_distance" : "3.104405986117752",
        "perihelion_time" : "2458529.798451139018",
        "mean_anomaly" : "199.8879168155766",
        "mean_motion" : ".3024986807346061",
        "equinox" : "J2000"
      }
    }, {
      "links" : {
        "self" : "https://api.nasa.gov/neo/rest/v1/neo/3664085?api_key=t0TVs3DtDT2H8Oy2Zy8m2eVrNsAVKAexjcZXUckd"
      },
      "neo_reference_id" : "3664085",
      "name" : "(2014 EB49)",
      "nasa_jpl_url" : "http://ssd.jpl.nasa.gov/sbdb.cgi?sstr=3664085",
      "absolute_magnitude_h" : 20.6,
      "estimated_diameter" : {
        "kilometers" : {
          "estimated_diameter_min" : 0.2016299194,
          "estimated_diameter_max" : 0.4508582062
        },
        "meters" : {
          "estimated_diameter_min" : 201.6299194428,
          "estimated_diameter_max" : 450.8582061718
        },
        "miles" : {
          "estimated_diameter_min" : 0.1252869847,
          "estimated_diameter_max" : 0.2801502144
        },
        "feet" : {
          "estimated_diameter_min" : 661.5155049046,
          "estimated_diameter_max" : 1479.1936371367
        }
      },
      "is_potentially_hazardous_asteroid" : false,
      "close_approach_data" : [ {
        "close_approach_date" : "2012-08-22",
        "epoch_date_close_approach" : 1345618800000,
        "relative_velocity" : {
          "kilometers_per_second" : "16.3741607697",
          "kilometers_per_hour" : "58946.9787708419",
          "miles_per_hour" : "36627.3602256934"
        },
        "miss_distance" : {
          "astronomical" : "0.2519907166",
          "lunar" : "98.0243835449",
          "kilometers" : "37697272",
          "miles" : "23424000"
        },
        "orbiting_body" : "Earth"
      } ],
      "orbital_data" : {
        "orbit_id" : "14",
        "orbit_determination_date" : "2017-04-06 08:42:03",
        "orbit_uncertainty" : "2",
        "minimum_orbit_intersection" : ".0675044",
        "jupiter_tisserand_invariant" : "4.341",
        "epoch_osculation" : "2458000.5",
        "eccentricity" : ".4248581104622237",
        "semi_major_axis" : "1.519447535267542",
        "inclination" : "20.54596413882785",
        "ascending_node_longitude" : "358.1331983423283",
        "orbital_period" : "684.1116564777785",
        "perihelion_distance" : ".873897926487291",
        "perihelion_argument" : "250.6621425091026",
        "aphelion_distance" : "2.164997144047793",
        "perihelion_time" : "2458152.604944285650",
        "mean_anomaly" : "279.9578322860916",
        "mean_motion" : ".5262298874623744",
        "equinox" : "J2000"
      }
    } ]
  }
}